<?xml version="1.0" encoding="UTF-8"?>
<ndm xmlns:xsi="http://www.w3.org/2001/XMLSchema-instance" xsi:noNamespaceSchemaLocation="https://sanaregistry.org/r/ndmxml_unqualified/ndmxml-2.0.0-master-2.0.xsd">
<omm id="CCSDS_OMM_VERS" version="2.0">
<header><CREATION_DATE/><ORIGINATOR/></header><body><segment><metadata><OBJECT_NAME>ORBCOMM FM24</OBJECT_NAME><OBJECT_ID>1998-053D</OBJECT_ID><CENTER_NAME>EARTH</CENTER_NAME><REF_FRAME>TEME</REF_FRAME><TIME_SYSTEM>UTC</TIME_SYSTEM><MEAN_ELEMENT_THEORY>SGP4</MEAN_ELEMENT_THEORY></metadata><data><meanElements><EPOCH>2024-08-11T15:30:11.816640</EPOCH><MEAN_MOTION>14.36092681</MEAN_MOTION><ECCENTRICITY>.0001629</ECCENTRICITY><INCLINATION>45.0081</INCLINATION><RA_OF_ASC_NODE>294.8077</RA_OF_ASC_NODE><ARG_OF_PERICENTER>224.4098</ARG_OF_PERICENTER><MEAN_ANOMALY>135.6619</MEAN_ANOMALY></meanElements><tleParameters><EPHEMERIS_TYPE>0</EPHEMERIS_TYPE><CLASSIFICATION_TYPE>U</CLASSIFICATION_TYPE><NORAD_CAT_ID>25478</NORAD_CAT_ID><ELEMENT_SET_NO>999</ELEMENT_SET_NO><REV_AT_EPOCH>35291</REV_AT_EPOCH><BSTAR>.16882E-2</BSTAR><MEAN_MOTION_DOT>.4821E-4</MEAN_MOTION_DOT><MEAN_MOTION_DDOT>0</MEAN_MOTION_DDOT></tleParameters></data></segment></body></omm>
<omm id="CCSDS_OMM_VERS" version="2.0">
<header><CREATION_DATE/><ORIGINATOR/></header><body><segment><metadata><OBJECT_NAME>ORBCOMM FM25</OBJECT_NAME><OBJECT_ID>1998-053E</OBJECT_ID><CENTER_NAME>EARTH</CENTER_NAME><REF_FRAME>TEME</REF_FRAME><TIME_SYSTEM>UTC</TIME_SYSTEM><MEAN_ELEMENT_THEORY>SGP4</MEAN_ELEMENT_THEORY></metadata><data><meanElements><EPOCH>2024-08-12T04:04:48.406080</EPOCH><MEAN_MOTION>14.36084278</MEAN_MOTION><ECCENTRICITY>.0003231</ECCENTRICITY><INCLINATION>45.0069</INCLINATION><RA_OF_ASC_NODE>290.5811</RA_OF_ASC_NODE><ARG_OF_PERICENTER>176.9683</ARG_OF_PERICENTER><MEAN_ANOMALY>183.1185</MEAN_ANOMALY></meanElements><tleParameters><EPHEMERIS_TYPE>0</EPHEMERIS_TYPE><CLASSIFICATION_TYPE>U</CLASSIFICATION_TYPE><NORAD_CAT_ID>25479</NORAD_CAT_ID><ELEMENT_SET_NO>999</ELEMENT_SET_NO><REV_AT_EPOCH>35328</REV_AT_EPOCH><BSTAR>.16573E-2</BSTAR><MEAN_MOTION_DOT>.4729E-4</MEAN_MOTION_DOT><MEAN_MOTION_DDOT>0</MEAN_MOTION_DDOT></tleParameters></data></segment></body></omm>
<omm id="CCSDS_OMM_VERS" version="2.0">
<header><CREATION_DATE/><ORIGINATOR/></header><body><segment><metadata><OBJECT_NAME>ORBCOMM FM26</OBJECT_NAME><OBJECT_ID>1998-053F</OBJECT_ID><CENTER_NAME>EARTH</CENTER_NAME><REF_FRAME>TEME</REF_FRAME><TIME_SYSTEM>UTC</TIME_SYSTEM><MEAN_ELEMENT_THEORY>SGP4</MEAN_ELEMENT_THEORY></metadata><data><meanElements><EPOCH>2024-08-12T05:09:17.450784</EPOCH><MEAN_MOTION>14.35459991</MEAN_MOTION><ECCENTRICITY>.0005807</ECCENTRICITY><INCLINATION>45.0064</INCLINATION><RA_OF_ASC_NODE>284.9054</RA_OF_ASC_NODE><ARG_OF_PERICENTER>182.8143</ARG_OF_PERICENTER><MEAN_ANOMALY>177.2672</MEAN_ANOMALY></meanElements><tleParameters><EPHEMERIS_TYPE>0</EPHEMERIS_TYPE><CLASSIFICATION_TYPE>U</CLASSIFICATION_TYPE><NORAD_CAT_ID>25480</NORAD_CAT_ID><ELEMENT_SET_NO>999</ELEMENT_SET_NO><REV_AT_EPOCH>35332</REV_AT_EPOCH><BSTAR>.15038E-2</BSTAR><MEAN_MOTION_DOT>.4224E-4</MEAN_MOTION_DOT><MEAN_MOTION_DDOT>0</MEAN_MOTION_DDOT></tleParameters></data></segment></body></omm>
<omm id="CCSDS_OMM_VERS" version="2.0">
<header><CREATION_DATE/><ORIGINATOR/></header><body><segment><metadata><OBJECT_NAME>ORBCOMM FM27</OBJECT_NAME><OBJECT_ID>1998-053G</OBJECT_ID><CENTER_NAME>EARTH</CENTER_NAME><REF_FRAME>TEME</REF_FRAME><TIME_SYSTEM>UTC</TIME_SYSTEM><MEAN_ELEMENT_THEORY>SGP4</MEAN_ELEMENT_THEORY></metadata><data><meanElements><EPOCH>2024-08-11T21:08:07.905120</EPOCH><MEAN_MOTION>14.36068830</MEAN_MOTION><ECCENTRICITY>.000267</ECCENTRICITY><INCLINATION>45.0054</INCLINATION><RA_OF_ASC_NODE>292.2089</RA_OF_ASC_NODE><ARG_OF_PERICENTER>259.7224</ARG_OF_PERICENTER><MEAN_ANOMALY>100.3323</MEAN_ANOMALY></meanElements><tleParameters><EPHEMERIS_TYPE>0</EPHEMERIS_TYPE><CLASSIFICATION_TYPE>U</CLASSIFICATION_TYPE><NORAD_CAT_ID>25481</NORAD_CAT_ID><ELEMENT_SET_NO>999</ELEMENT_SET_NO><REV_AT_EPOCH>35317</REV_AT_EPOCH><BSTAR>.174E-2</BSTAR><MEAN_MOTION_DOT>.4971E-4</MEAN_MOTION_DOT><MEAN_MOTION_DDOT>0</MEAN_MOTION_DDOT></tleParameters></data></segment></body></omm>
<omm id="CCSDS_OMM_VERS" version="2.0">
<header><CREATION_DATE/><ORIGINATOR/></header><body><segment><metadata><OBJECT_NAME>ORBCOMM FM28</OBJECT_NAME><OBJECT_ID>1998-053H</OBJECT_ID><CENTER_NAME>EARTH</CENTER_NAME><REF_FRAME>TEME</REF_FRAME><TIME_SYSTEM>UTC</TIME_SYSTEM><MEAN_ELEMENT_THEORY>SGP4</MEAN_ELEMENT_THEORY></metadata><data><meanElements><EPOCH>2024-08-12T02:49:53.990400</EPOCH><MEAN_MOTION>14.36463012</MEAN_MOTION><ECCENTRICITY>.0004103</ECCENTRICITY><INCLINATION>45.0040</INCLINATION><RA_OF_ASC_NODE>229.2509</RA_OF_ASC_NODE><ARG_OF_PERICENTER>225.2243</ARG_OF_PERICENTER><MEAN_ANOMALY>134.8271</MEAN_ANOMALY></meanElements><tleParameters><EPHEMERIS_TYPE>0</EPHEMERIS_TYPE><CLASSIFICATION_TYPE>U</CLASSIFICATION_TYPE><NORAD_CAT_ID>25482</NORAD_CAT_ID><ELEMENT_SET_NO>999</ELEMENT_SET_NO><REV_AT_EPOCH>35405</REV_AT_EPOCH><BSTAR>.13765E-2</BSTAR><MEAN_MOTION_DOT>.3934E-4</MEAN_MOTION_DOT><MEAN_MOTION_DDOT>0</MEAN_MOTION_DDOT></tleParameters></data></segment></body></omm>
<omm id="CCSDS_OMM_VERS" version="2.0">
<header><CREATION_DATE/><ORIGINATOR/></header><body><segment><metadata><OBJECT_NAME>ORBCOMM FM30</OBJECT_NAME><OBJECT_ID>1999-065A</OBJECT_ID><CENTER_NAME>EARTH</CENTER_NAME><REF_FRAME>TEME</REF_FRAME><TIME_SYSTEM>UTC</TIME_SYSTEM><MEAN_ELEMENT_THEORY>SGP4</MEAN_ELEMENT_THEORY></metadata><data><meanElements><EPOCH>2024-08-11T23:01:14.601792</EPOCH><MEAN_MOTION>14.35594249</MEAN_MOTION><ECCENTRICITY>.0005692</ECCENTRICITY><INCLINATION>45.0308</INCLINATION><RA_OF_ASC_NODE>111.7319</RA_OF_ASC_NODE><ARG_OF_PERICENTER>264.7287</ARG_OF_PERICENTER><MEAN_ANOMALY>95.2912</MEAN_ANOMALY></meanElements><tleParameters><EPHEMERIS_TYPE>0</EPHEMERIS_TYPE><CLASSIFICATION_TYPE>U</CLASSIFICATION_TYPE><NORAD_CAT_ID>25980</NORAD_CAT_ID><ELEMENT_SET_NO>999</ELEMENT_SET_NO><REV_AT_EPOCH>28998</REV_AT_EPOCH><BSTAR>.17317E-2</BSTAR><MEAN_MOTION_DOT>.4899E-4</MEAN_MOTION_DOT><MEAN_MOTION_DDOT>0</MEAN_MOTION_DDOT></tleParameters></data></segment></body></omm>
<omm id="CCSDS_OMM_VERS" version="2.0">
<header><CREATION_DATE/><ORIGINATOR/></header><body><segment><metadata><OBJECT_NAME>ORBCOMM FM31</OBJECT_NAME><OBJECT_ID>1999-065B</OBJECT_ID><CENTER_NAME>EARTH</CENTER_NAME><REF_FRAME>TEME</REF_FRAME><TIME_SYSTEM>UTC</TIME_SYSTEM><MEAN_ELEMENT_THEORY>SGP4</MEAN_ELEMENT_THEORY></metadata><data><meanElements><EPOCH>2024-08-12T01:32:35.060352</EPOCH><MEAN_MOTION>14.35583543</MEAN_MOTION><ECCENTRICITY>.0003233</ECCENTRICITY><INCLINATION>45.0222</INCLINATION><RA_OF_ASC_NODE>104.8648</RA_OF_ASC_NODE><ARG_OF_PERICENTER>294.9715</ARG_OF_PERICENTER><MEAN_ANOMALY>65.0797</MEAN_ANOMALY></meanElements><tleParameters><EPHEMERIS_TYPE>0</EPHEMERIS_TYPE><CLASSIFICATION_TYPE>U</CLASSIFICATION_TYPE><NORAD_CAT_ID>25981</NORAD_CAT_ID><ELEMENT_SET_NO>999</ELEMENT_SET_NO><REV_AT_EPOCH>29052</REV_AT_EPOCH><BSTAR>.17188E-2</BSTAR><MEAN_MOTION_DOT>.486E-4</MEAN_MOTION_DOT><MEAN_MOTION_DDOT>0</MEAN_MOTION_DDOT></tleParameters></data></segment></body></omm>
<omm id="CCSDS_OMM_VERS" version="2.0">
<header><CREATION_DATE/><ORIGINATOR/></header><body><segment><metadata><OBJECT_NAME>ORBCOMM FM32</OBJECT_NAME><OBJECT_ID>1999-065C</OBJECT_ID><CENTER_NAME>EARTH</CENTER_NAME><REF_FRAME>TEME</REF_FRAME><TIME_SYSTEM>UTC</TIME_SYSTEM><MEAN_ELEMENT_THEORY>SGP4</MEAN_ELEMENT_THEORY></metadata><data><meanElements><EPOCH>2024-08-12T00:59:20.978592</EPOCH><MEAN_MOTION>14.34593947</MEAN_MOTION><ECCENTRICITY>.0005602</ECCENTRICITY><INCLINATION>45.0148</INCLINATION><RA_OF_ASC_NODE>119.4398</RA_OF_ASC_NODE><ARG_OF_PERICENTER>294.3423</ARG_OF_PERICENTER><MEAN_ANOMALY>65.6839</MEAN_ANOMALY></meanElements><tleParameters><EPHEMERIS_TYPE>0</EPHEMERIS_TYPE><CLASSIFICATION_TYPE>U</CLASSIFICATION_TYPE><NORAD_CAT_ID>25982</NORAD_CAT_ID><ELEMENT_SET_NO>999</ELEMENT_SET_NO><REV_AT_EPOCH>29030</REV_AT_EPOCH><BSTAR>.18452E-2</BSTAR><MEAN_MOTION_DOT>.5123E-4</MEAN_MOTION_DOT><MEAN_MOTION_DDOT>0</MEAN_MOTION_DDOT></tleParameters></data></segment></body></omm>

</ndm>
