ORBCOMM FM24            
1 25478U 98053D   24224.64597010  .00004821  00000+0  16882-2 0  9998
2 25478  45.0081 294.8077 0001629 224.4098 135.6619 14.36092681352911
ORBCOMM FM25            
1 25479U 98053E   24225.17000470  .00004729  00000+0  16573-2 0  9991
2 25479  45.0069 290.5811 0003231 176.9683 183.1185 14.36084278353289
ORBCOMM FM26            
1 25480U 98053F   24225.21478531  .00004224  00000+0  15038-2 0  9990
2 25480  45.0064 284.9054 0005807 182.8143 177.2672 14.35459991353327
ORBCOMM FM27            
1 25481U 98053G   24224.88064705  .00004971  00000+0  17400-2 0  9991
2 25481  45.0054 292.2089 0002670 259.7224 100.3323 14.36068830353178
ORBCOMM FM28            
1 25482U 98053H   24225.11798600  .00003934  00000+0  13765-2 0  9995
2 25482  45.0040 229.2509 0004103 225.2243 134.8271 14.36463012354056
ORBCOMM FM30            
1 25980U 99065A   24224.95919678  .00004899  00000+0  17317-2 0  9991
2 25980  45.0308 111.7319 0005692 264.7287  95.2912 14.35594249289987
ORBCOMM FM31            
1 25981U 99065B   24225.06429468  .00004860  00000+0  17188-2 0  9992
2 25981  45.0222 104.8648 0003233 294.9715  65.0797 14.35583543290524
ORBCOMM FM32            
1 25982U 99065C   24225.04121503  .00005123  00000+0  18452-2 0  9998
2 25982  45.0148 119.4398 0005602 294.3423  65.6839 14.34593947290305
